[{"OBJECT_NAME":"ONEWEB-0371","OBJECT_ID":"2021-090U","EPOCH":"2026-05-26T23:04:04.441728","MEAN_MOTION":13.19726311,"ECCENTRICITY":0.0001674,"INCLINATION":87.9159,"RA_OF_ASC_NODE":309.1967,"ARG_OF_PERICENTER":95.3199,"MEAN_ANOMALY":264.8125,"EPHEMERIS_TYPE":0,"CLASSIFICATION_TYPE":"U","NORAD_CAT_ID":49297,"ELEMENT_SET_NO":999,"REV_AT_EPOCH":22365,"BSTAR":-8.9423e-05,"MEAN_MOTION_DOT":-2.3e-07,"MEAN_MOTION_DDOT":0.0},{"OBJECT_NAME":"ONEWEB-0372","OBJECT_ID":"2021-090V","EPOCH":"2026-05-26T20:59:17.433312","MEAN_MOTION":13.20769965,"ECCENTRICITY":0.0001862,"INCLINATION":87.9178,"RA_OF_ASC_NODE":278.6906,"ARG_OF_PERICENTER":99.0699,"MEAN_ANOMALY":261.0645,"EPHEMERIS_TYPE":0,"CLASSIFICATION_TYPE":"U","NORAD_CAT_ID":49298,"ELEMENT_SET_NO":999,"REV_AT_EPOCH":22702,"BSTAR":-1.3166e-05,"MEAN_MOTION_DOT":8e-08,"MEAN_MOTION_DDOT":0.0},{"OBJECT_NAME":"ONEWEB-0373","OBJECT_ID":"2021-090W","EPOCH":"2026-05-27T06:41:18.463488","MEAN_MOTION":13.20770811,"ECCENTRICITY":0.000197,"INCLINATION":87.9177,"RA_OF_ASC_NODE":278.6108,"ARG_OF_PERICENTER":100.4182,"MEAN_ANOMALY":259.7174,"EPHEMERIS_TYPE":0,"CLASSIFICATION_TYPE":"U","NORAD_CAT_ID":49299,"ELEMENT_SET_NO":999,"REV_AT_EPOCH":22826,"BSTAR":-1.7885000000000002e-05,"MEAN_MOTION_DOT":6e-08,"MEAN_MOTION_DDOT":0.0},{"OBJECT_NAME":"ONEWEB-0374","OBJECT_ID":"2021-090X","EPOCH":"2026-05-26T22:59:29.904000","MEAN_MOTION":13.14501021,"ECCENTRICITY":0.0002392,"INCLINATION":87.8947,"RA_OF_ASC_NODE":293.9303,"ARG_OF_PERICENTER":93.6428,"MEAN_ANOMALY":266.4975,"EPHEMERIS_TYPE":0,"CLASSIFICATION_TYPE":"U","NORAD_CAT_ID":49300,"ELEMENT_SET_NO":999,"REV_AT_EPOCH":22477,"BSTAR":-0.00016439000000000002,"MEAN_MOTION_DOT":-4.8e-07,"MEAN_MOTION_DDOT":0.0},{"OBJECT_NAME":"ONEWEB-0375","OBJECT_ID":"2021-090Y","EPOCH":"2026-05-26T21:18:55.016928","MEAN_MOTION":13.20771537,"ECCENTRICITY":0.0002489,"INCLINATION":87.9176,"RA_OF_ASC_NODE":278.6801,"ARG_OF_PERICENTER":97.5521,"MEAN_ANOMALY":262.5895,"EPHEMERIS_TYPE":0,"CLASSIFICATION_TYPE":"U","NORAD_CAT_ID":49301,"ELEMENT_SET_NO":999,"REV_AT_EPOCH":22771,"BSTAR":-7.7116e-06,"MEAN_MOTION_DOT":1e-07,"MEAN_MOTION_DDOT":0.0},{"OBJECT_NAME":"ONEWEB-0376","OBJECT_ID":"2021-090Z","EPOCH":"2026-05-26T23:01:46.512768","MEAN_MOTION":13.19725013,"ECCENTRICITY":0.0001633,"INCLINATION":87.9162,"RA_OF_ASC_NODE":309.1962,"ARG_OF_PERICENTER":90.1237,"MEAN_ANOMALY":270.0083,"EPHEMERIS_TYPE":0,"CLASSIFICATION_TYPE":"U","NORAD_CAT_ID":49302,"ELEMENT_SET_NO":999,"REV_AT_EPOCH":22365,"BSTAR":-0.00065141,"MEAN_MOTION_DOT":-2.48e-06,"MEAN_MOTION_DDOT":0.0},{"OBJECT_NAME":"ONEWEB-0377","OBJECT_ID":"2021-090AA","EPOCH":"2026-05-26T20:59:43.426752","MEAN_MOTION":13.20770283,"ECCENTRICITY":0.0002082,"INCLINATION":87.9177,"RA_OF_ASC_NODE":278.6846,"ARG_OF_PERICENTER":102.8693,"MEAN_ANOMALY":257.2673,"EPHEMERIS_TYPE":0,"CLASSIFICATION_TYPE":"U","NORAD_CAT_ID":49303,"ELEMENT_SET_NO":999,"REV_AT_EPOCH":22770,"BSTAR":1.1226e-05,"MEAN_MOTION_DOT":1.8e-07,"MEAN_MOTION_DDOT":0.0},{"OBJECT_NAME":"ONEWEB-0378","OBJECT_ID":"2021-090AB","EPOCH":"2026-05-27T06:34:14.920320","MEAN_MOTION":13.20773244,"ECCENTRICITY":0.0001979,"INCLINATION":87.9174,"RA_OF_ASC_NODE":278.6109,"ARG_OF_PERICENTER":96.1654,"MEAN_ANOMALY":263.9705,"EPHEMERIS_TYPE":0,"CLASSIFICATION_TYPE":"U","NORAD_CAT_ID":49304,"ELEMENT_SET_NO":999,"REV_AT_EPOCH":22702,"BSTAR":7.3402e-05,"MEAN_MOTION_DOT":4.3e-07,"MEAN_MOTION_DDOT":0.0},{"OBJECT_NAME":"ONEWEB-0379","OBJECT_ID":"2021-090AC","EPOCH":"2026-05-26T22:52:38.010144","MEAN_MOTION":13.14501137,"ECCENTRICITY":0.0001927,"INCLINATION":87.8946,"RA_OF_ASC_NODE":293.9421,"ARG_OF_PERICENTER":94.1719,"MEAN_ANOMALY":265.9631,"EPHEMERIS_TYPE":0,"CLASSIFICATION_TYPE":"U","NORAD_CAT_ID":49305,"ELEMENT_SET_NO":999,"REV_AT_EPOCH":22477,"BSTAR":0.00012857,"MEAN_MOTION_DOT":6e-07,"MEAN_MOTION_DDOT":0.0},{"OBJECT_NAME":"ONEWEB-0380","OBJECT_ID":"2021-090AD","EPOCH":"2026-05-26T22:57:14.840928","MEAN_MOTION":13.19724441,"ECCENTRICITY":0.0001963,"INCLINATION":87.9151,"RA_OF_ASC_NODE":309.2041,"ARG_OF_PERICENTER":98.2249,"MEAN_ANOMALY":261.9107,"EPHEMERIS_TYPE":0,"CLASSIFICATION_TYPE":"U","NORAD_CAT_ID":49306,"ELEMENT_SET_NO":999,"REV_AT_EPOCH":22362,"BSTAR":-2.2344e-05,"MEAN_MOTION_DOT":4e-08,"MEAN_MOTION_DDOT":0.0},{"OBJECT_NAME":"ONEWEB-0381","OBJECT_ID":"2021-090AE","EPOCH":"2026-05-26T20:54:40.981824","MEAN_MOTION":13.20772032,"ECCENTRICITY":0.0002176,"INCLINATION":87.9177,"RA_OF_ASC_NODE":278.6897,"ARG_OF_PERICENTER":97.6378,"MEAN_ANOMALY":262.5003,"EPHEMERIS_TYPE":0,"CLASSIFICATION_TYPE":"U","NORAD_CAT_ID":49307,"ELEMENT_SET_NO":999,"REV_AT_EPOCH":22701,"BSTAR":3.0641e-05,"MEAN_MOTION_DOT":2.5e-07,"MEAN_MOTION_DDOT":0.0},{"OBJECT_NAME":"ONEWEB-0382","OBJECT_ID":"2021-090AF","EPOCH":"2026-05-26T20:35:14.898912","MEAN_MOTION":13.20771939,"ECCENTRICITY":0.0002184,"INCLINATION":87.9176,"RA_OF_ASC_NODE":278.6871,"ARG_OF_PERICENTER":95.0487,"MEAN_ANOMALY":265.0896,"EPHEMERIS_TYPE":0,"CLASSIFICATION_TYPE":"U","NORAD_CAT_ID":49308,"ELEMENT_SET_NO":999,"REV_AT_EPOCH":22700,"BSTAR":9.335900000000001e-05,"MEAN_MOTION_DOT":5.1e-07,"MEAN_MOTION_DDOT":0.0},{"OBJECT_NAME":"ONEWEB-0383","OBJECT_ID":"2021-090AG","EPOCH":"2026-05-26T22:43:30.646272","MEAN_MOTION":13.1450368,"ECCENTRICITY":0.0001874,"INCLINATION":87.8956,"RA_OF_ASC_NODE":293.9342,"ARG_OF_PERICENTER":92.6522,"MEAN_ANOMALY":267.4822,"EPHEMERIS_TYPE":0,"CLASSIFICATION_TYPE":"U","NORAD_CAT_ID":49309,"ELEMENT_SET_NO":999,"REV_AT_EPOCH":22480,"BSTAR":0.00040673,"MEAN_MOTION_DOT":1.64e-06,"MEAN_MOTION_DDOT":0.0},{"OBJECT_NAME":"ONEWEB-0384","OBJECT_ID":"2021-090AH","EPOCH":"2026-05-27T07:14:22.061472","MEAN_MOTION":13.20811708,"ECCENTRICITY":0.0002288,"INCLINATION":87.918,"RA_OF_ASC_NODE":278.6422,"ARG_OF_PERICENTER":90.7965,"MEAN_ANOMALY":269.343,"EPHEMERIS_TYPE":0,"CLASSIFICATION_TYPE":"U","NORAD_CAT_ID":49310,"ELEMENT_SET_NO":999,"REV_AT_EPOCH":22707,"BSTAR":0.00014604,"MEAN_MOTION_DOT":7.2e-07,"MEAN_MOTION_DDOT":0.0},{"OBJECT_NAME":"ONEWEB-0385","OBJECT_ID":"2021-090AJ","EPOCH":"2026-05-27T07:20:06.949536","MEAN_MOTION":13.20767651,"ECCENTRICITY":0.0002057,"INCLINATION":87.9177,"RA_OF_ASC_NODE":278.6028,"ARG_OF_PERICENTER":96.8929,"MEAN_ANOMALY":263.2438,"EPHEMERIS_TYPE":0,"CLASSIFICATION_TYPE":"U","NORAD_CAT_ID":49311,"ELEMENT_SET_NO":999,"REV_AT_EPOCH":22704,"BSTAR":0.00023644,"MEAN_MOTION_DOT":1.09e-06,"MEAN_MOTION_DDOT":0.0},{"OBJECT_NAME":"ONEWEB-0386","OBJECT_ID":"2021-090AK","EPOCH":"2026-05-26T20:49:49.849248","MEAN_MOTION":13.20771796,"ECCENTRICITY":0.0002092,"INCLINATION":87.918,"RA_OF_ASC_NODE":278.6804,"ARG_OF_PERICENTER":93.9808,"MEAN_ANOMALY":266.1564,"EPHEMERIS_TYPE":0,"CLASSIFICATION_TYPE":"U","NORAD_CAT_ID":49312,"ELEMENT_SET_NO":999,"REV_AT_EPOCH":22700,"BSTAR":0.00017008000000000002,"MEAN_MOTION_DOT":8.2e-07,"MEAN_MOTION_DDOT":0.0}]