ONEWEB-0371             
1 49297U 21090U   26146.96116252 -.00000023  00000+0 -89423-4 0  9990
2 49297  87.9159 309.1967 0001674  95.3199 264.8125 13.19726311223651
ONEWEB-0372             
1 49298U 21090V   26146.87450733  .00000008  00000+0 -13166-4 0  9999
2 49298  87.9178 278.6906 0001862  99.0699 261.0645 13.20769965227026
ONEWEB-0373             
1 49299U 21090W   26147.27868592  .00000006  00000+0 -17885-4 0  9991
2 49299  87.9177 278.6108 0001970 100.4182 259.7174 13.20770811228264
ONEWEB-0374             
1 49300U 21090X   26146.95798500 -.00000048  00000+0 -16439-3 0  9999
2 49300  87.8947 293.9303 0002392  93.6428 266.4975 13.14501021224777
ONEWEB-0375             
1 49301U 21090Y   26146.88813677  .00000010  00000+0 -77116-5 0  9994
2 49301  87.9176 278.6801 0002489  97.5521 262.5895 13.20771537227713
ONEWEB-0376             
1 49302U 21090Z   26146.95956612 -.00000248  00000+0 -65141-3 0  9997
2 49302  87.9162 309.1962 0001633  90.1237 270.0083 13.19725013223658
ONEWEB-0377             
1 49303U 21090AA  26146.87480818  .00000018  00000+0  11226-4 0  9998
2 49303  87.9177 278.6846 0002082 102.8693 257.2673 13.20770283227705
ONEWEB-0378             
1 49304U 21090AB  26147.27378380  .00000043  00000+0  73402-4 0  9996
2 49304  87.9174 278.6109 0001979  96.1654 263.9705 13.20773244227026
ONEWEB-0379             
1 49305U 21090AC  26146.95321771  .00000060  00000+0  12857-3 0  9998
2 49305  87.8946 293.9421 0001927  94.1719 265.9631 13.14501137224775
ONEWEB-0380             
1 49306U 21090AD  26146.95642177  .00000004  00000+0 -22344-4 0  9997
2 49306  87.9151 309.2041 0001963  98.2249 261.9107 13.19724441223624
ONEWEB-0381             
1 49307U 21090AE  26146.87130766  .00000025  00000+0  30641-4 0  9996
2 49307  87.9177 278.6897 0002176  97.6378 262.5003 13.20772032227014
ONEWEB-0382             
1 49308U 21090AF  26146.85781133  .00000051  00000+0  93359-4 0  9999
2 49308  87.9176 278.6871 0002184  95.0487 265.0896 13.20771939227000
ONEWEB-0383             
1 49309U 21090AG  26146.94688248  .00000164  00000+0  40673-3 0  9998
2 49309  87.8956 293.9342 0001874  92.6522 267.4822 13.14503680224806
ONEWEB-0384             
1 49310U 21090AH  26147.30164423  .00000072  00000+0  14604-3 0  9998
2 49310  87.9180 278.6422 0002288  90.7965 269.3430 13.20811708227075
ONEWEB-0385             
1 49311U 21090AJ  26147.30563599  .00000109  00000+0  23644-3 0  9991
2 49311  87.9177 278.6028 0002057  96.8929 263.2438 13.20767651227040
ONEWEB-0386             
1 49312U 21090AK  26146.86793807  .00000082  00000+0  17008-3 0  9996
2 49312  87.9180 278.6804 0002092  93.9808 266.1564 13.20771796227003
